GLOBALSTAR M075         
1 37192U 10054E   25232.29435132 -.00000085  00000+0  10306-3 0  9991
2 37192  51.9975 346.3461 0000718 103.5902 278.9825 12.62266764684475
GLOBALSTAR M073         
1 37193U 10054F   25232.30743450 -.00000072  00000+0  17550-3 0  9993
2 37193  52.0042 260.1750 0000480 105.8872 336.3866 12.62262025685981
GLOBALSTAR M083         
1 37739U 11033A   25232.33536771 -.00000112  00000+0 -47687-4 0  9997
2 37739  51.9843 208.7329 0000411  54.9569  93.0697 12.62274918655312
GLOBALSTAR M088         
1 37740U 11033B   25232.39310351 -.00000095  00000+0  48950-4 0  9992
2 37740  52.0209 114.2544 0000633  54.6114 116.4769 12.62267304650799
GLOBALSTAR M091         
1 37741U 11033C   25232.32680495 -.00000095  00000+0  49378-4 0  9990
2 37741  51.9993  77.8634 0000896  57.8838 112.9131 12.62269754651540
GLOBALSTAR M085         
1 37742U 11033D   25232.52264157 -.00000105  00000+0 -74912-5 0  9992
2 37742  52.0145  28.2961 0000881  74.2959 326.8512 12.62263981652317
GLOBALSTAR M081         
1 37743U 11033E   25232.46873142 -.00000101  00000+0  16743-4 0  9998
2 37743  51.9972  31.2402 0001008  85.4826 309.2945 12.62267610652348
GLOBALSTAR M089         
1 37744U 11033F   25232.51831164 -.00000104  00000+0  11140-5 0  9993
2 37744  51.9957 345.3063 0000808 122.8577 318.3056 12.62265689653068
